{"type": "FeatureCollection", "features": [ {"type": "Feature", "properties": {"norad_id": 38552, "name": "METEOSAT-10 (MSG-3)", "group": "weather", "lat": -2.782173570324478, "lon": 20.542757594177168, "alt_km": 35783.359658774534, "timestamp": "2025-12-17T19:34:07.687779+00:00", "meta": {"OBJECT_NAME": "METEOSAT-10 (MSG-3)", "OBJECT_ID": "2012-035B", "EPOCH": "2025-12-16T21:55:05.046240", "MEAN_MOTION": 1.00276114, "ECCENTRICITY": 7.064e-05, "INCLINATION": 4.2382, "RA_OF_ASC_NODE": 61.7135, "ARG_OF_PERICENTER": 267.1747, "MEAN_ANOMALY": 85.9132, "EPHEMERIS_TYPE": 0, "CLASSIFICATION_TYPE": "U", "NORAD_CAT_ID": 38552, "ELEMENT_SET_NO": 999, "REV_AT_EPOCH": 4902, "BSTAR": 0, "MEAN_MOTION_DOT": 1.6e-07, "MEAN_MOTION_DDOT": 0}, "tle": {"line1": "1 38552U 12035B   25350.91325285  .00000016  00000+0  00000+0 0  9999", "line2": "2 38552   4.2382  61.7135 0000706 267.1747  85.9132  1.00276114 49029"}}, "geometry": {"type": "Point", "coordinates": [20.542757594177168, -2.782173570324478]}}, {"type": "Feature", "properties": {"norad_id": 38771, "name": "METOP-B", "group": "weather", "lat": 53.53713170853805, "lon": -126.38240173848048, "alt_km": 813.3197472740385, "timestamp": "2025-12-17T19:34:07.687790+00:00", "meta": {"OBJECT_NAME": "METOP-B", "OBJECT_ID": "2012-049A", "EPOCH": "2025-12-17T07:09:16.621056", "MEAN_MOTION": 14.21410053, "ECCENTRICITY": 0.00030723, "INCLINATION": 98.6794, "RA_OF_ASC_NODE": 41.1795, "ARG_OF_PERICENTER": 134.45, "MEAN_ANOMALY": 225.6929, "EPHEMERIS_TYPE": 0, "CLASSIFICATION_TYPE": "U", "NORAD_CAT_ID": 38771, "ELEMENT_SET_NO": 999, "REV_AT_EPOCH": 68742, "BSTAR": 7.5178395e-05, "MEAN_MOTION_DOT": 1.21e-06, "MEAN_MOTION_DDOT": 0}, "tle": {"line1": "1 38771U 12049A   25351.29810904  .00000121  00000+0  75178-4 0  9996", "line2": "2 38771  98.6794  41.1795 0003072 134.4500 225.6929 14.21410053687420"}}, "geometry": {"type": "Point", "coordinates": [-126.38240173848048, 53.53713170853805]}}, {"type": "Feature", "properties": {"norad_id": 39216, "name": "INSAT-3D", "group": "weather", "lat": 1.3253723481914421, "lon": 149.6679140596255, "alt_km": 35788.11559909889, "timestamp": "2025-12-17T19:34:07.687802+00:00", "meta": {"OBJECT_NAME": "INSAT-3D", "OBJECT_ID": "2013-038B", "EPOCH": "2025-12-17T05:22:53.239584", "MEAN_MOTION": 1.00268019, "ECCENTRICITY": 0.00012236, "INCLINATION": 1.4559, "RA_OF_ASC_NODE": 84.9481, "ARG_OF_PERICENTER": 166.4706, "MEAN_ANOMALY": 44.895, "EPHEMERIS_TYPE": 0, "CLASSIFICATION_TYPE": "U", "NORAD_CAT_ID": 39216, "ELEMENT_SET_NO": 999, "REV_AT_EPOCH": 4525, "BSTAR": 0, "MEAN_MOTION_DOT": -3.16e-06, "MEAN_MOTION_DDOT": 0}, "tle": {"line1": "1 39216U 13038B   25351.22422731 -.00000316  00000+0  00000+0 0  9994", "line2": "2 39216   1.4559  84.9481 0001223 166.4706  44.8950  1.00268019 45252"}}, "geometry": {"type": "Point", "coordinates": [149.6679140596255, 1.3253723481914421]}}, {"type": "Feature", "properties": {"norad_id": 39260, "name": "FENGYUN 3C", "group": "weather", "lat": -81.35992736615727, "lon": 70.30536008900637, "alt_km": 846.7440750243941, "timestamp": "2025-12-17T19:34:07.687827+00:00", "meta": {"OBJECT_NAME": "FENGYUN 3C", "OBJECT_ID": "2013-052A", "EPOCH": "2025-12-17T04:44:09.014784", "MEAN_MOTION": 14.15697734, "ECCENTRICITY": 0.00145222, "INCLINATION": 98.4767, "RA_OF_ASC_NODE": 328.6591, "ARG_OF_PERICENTER": 182.9564, "MEAN_ANOMALY": 177.1527, "EPHEMERIS_TYPE": 0, "CLASSIFICATION_TYPE": "U", "NORAD_CAT_ID": 39260, "ELEMENT_SET_NO": 999, "REV_AT_EPOCH": 63281, "BSTAR": 7.7037708e-05, "MEAN_MOTION_DOT": 1.1e-06, "MEAN_MOTION_DDOT": 0}, "tle": {"line1": "1 39260U 13052A   25351.19732656  .00000110  00000+0  77038-4 0  9996", "line2": "2 39260  98.4767 328.6591 0014522 182.9564 177.1527 14.15697734632813"}}, "geometry": {"type": "Point", "coordinates": [70.30536008900637, -81.35992736615727]}}, {"type": "Feature", "properties": {"norad_id": 40069, "name": "METEOR-M 2", "group": "weather", "lat": -6.65947312444316, "lon": -29.795307622124252, "alt_km": 827.8986851086329, "timestamp": "2025-12-17T19:34:07.687841+00:00", "meta": {"OBJECT_NAME": "METEOR-M 2", "OBJECT_ID": "2014-037A", "EPOCH": "2025-12-17T06:05:05.380800", "MEAN_MOTION": 14.21388202, "ECCENTRICITY": 0.00051702, "INCLINATION": 98.4899, "RA_OF_ASC_NODE": 328.6652, "ARG_OF_PERICENTER": 195.4944, "MEAN_ANOMALY": 164.6076, "EPHEMERIS_TYPE": 0, "CLASSIFICATION_TYPE": "U", "NORAD_CAT_ID": 40069, "ELEMENT_SET_NO": 999, "REV_AT_EPOCH": 59347, "BSTAR": 9.502573e-06, "MEAN_MOTION_DOT": -2.1e-07, "MEAN_MOTION_DDOT": 0}, "tle": {"line1": "1 40069U 14037A   25351.25353450 -.00000021  00000+0  95026-5 0  9997", "line2": "2 40069  98.4899 328.6652 0005170 195.4944 164.6076 14.21388202593478"}}, "geometry": {"type": "Point", "coordinates": [-29.795307622124252, -6.65947312444316]}}, {"type": "Feature", "properties": {"norad_id": 40267, "name": "HIMAWARI-8", "group": "weather", "lat": -0.00019833944360426114, "lon": 160.8690027659427, "alt_km": 35788.32447393291, "timestamp": "2025-12-17T19:34:07.687854+00:00", "meta": {"OBJECT_NAME": "HIMAWARI-8", "OBJECT_ID": "2014-060A", "EPOCH": "2025-12-17T05:32:16.442304", "MEAN_MOTION": 1.00272371, "ECCENTRICITY": 8.61e-05, "INCLINATION": 0.0195, "RA_OF_ASC_NODE": 160.7714, "ARG_OF_PERICENTER": 130.4073, "MEAN_ANOMALY": 18.669, "EPHEMERIS_TYPE": 0, "CLASSIFICATION_TYPE": "U", "NORAD_CAT_ID": 40267, "ELEMENT_SET_NO": 999, "REV_AT_EPOCH": 4093, "BSTAR": 0, "MEAN_MOTION_DOT": -2.51e-06, "MEAN_MOTION_DDOT": 0}, "tle": {"line1": "1 40267U 14060A   25351.23074586 -.00000251  00000+0  00000+0 0  9998", "line2": "2 40267   0.0195 160.7714 0000861 130.4073  18.6690  1.00272371 40934"}}, "geometry": {"type": "Point", "coordinates": [160.8690027659427, -0.00019833944360426114]}}, {"type": "Feature", "properties": {"norad_id": 40367, "name": "FENGYUN 2G", "group": "weather", "lat": 3.6523004239639287, "lon": 119.45714988195964, "alt_km": 35799.69625114823, "timestamp": "2025-12-17T19:34:07.687866+00:00", "meta": {"OBJECT_NAME": "FENGYUN 2G", "OBJECT_ID": "2014-090A", "EPOCH": "2025-12-16T18:57:58.838976", "MEAN_MOTION": 1.00262837, "ECCENTRICITY": 0.00028831, "INCLINATION": 5.1785, "RA_OF_ASC_NODE": 75.0518, "ARG_OF_PERICENTER": 204.4015, "MEAN_ANOMALY": 190.125, "EPHEMERIS_TYPE": 0, "CLASSIFICATION_TYPE": "U", "NORAD_CAT_ID": 40367, "ELEMENT_SET_NO": 999, "REV_AT_EPOCH": 4017, "BSTAR": 0, "MEAN_MOTION_DOT": -2.79e-06, "MEAN_MOTION_DDOT": 0}, "tle": {"line1": "1 40367U 14090A   25350.79026434 -.00000279  00000+0  00000+0 0  9991", "line2": "2 40367   5.1785  75.0518 0002883 204.4015 190.1250  1.00262837 40170"}}, "geometry": {"type": "Point", "coordinates": [119.45714988195964, 3.6523004239639287]}}, {"type": "Feature", "properties": {"norad_id": 40732, "name": "METEOSAT-11 (MSG-4)", "group": "weather", "lat": -1.8412634057966415, "lon": 29.466654773294742, "alt_km": 35790.85896985933, "timestamp": "2025-12-17T19:34:07.687879+00:00", "meta": {"OBJECT_NAME": "METEOSAT-11 (MSG-4)", "OBJECT_ID": "2015-034A", "EPOCH": "2025-12-17T04:48:34.026048", "MEAN_MOTION": 1.00268884, "ECCENTRICITY": 8.998e-05, "INCLINATION": 2.747, "RA_OF_ASC_NODE": 71.9903, "ARG_OF_PERICENTER": 132.6225, "MEAN_ANOMALY": 322.8401, "EPHEMERIS_TYPE": 0, "CLASSIFICATION_TYPE": "U", "NORAD_CAT_ID": 40732, "ELEMENT_SET_NO": 999, "REV_AT_EPOCH": 539, "BSTAR": 0, "MEAN_MOTION_DOT": 8.3e-07, "MEAN_MOTION_DDOT": 0}, "tle": {"line1": "1 40732U 15034A   25351.20039382  .00000083  00000+0  00000+0 0  9991", "line2": "2 40732   2.7470  71.9903 0000899 132.6225 322.8401  1.00268884  5398"}}, "geometry": {"type": "Point", "coordinates": [29.466654773294742, -1.8412634057966415]}}, {"type": "Feature", "properties": {"norad_id": 41105, "name": "ELEKTRO-L 2", "group": "weather", "lat": -5.736350086794876, "lon": 5.89531905186875, "alt_km": 35784.98859378442, "timestamp": "2025-12-17T19:34:07.687891+00:00", "meta": {"OBJECT_NAME": "ELEKTRO-L 2", "OBJECT_ID": "2015-074A", "EPOCH": "2025-12-17T02:58:11.708832", "MEAN_MOTION": 1.00272669, "ECCENTRICITY": 0.00036686, "INCLINATION": 6.2364, "RA_OF_ASC_NODE": 72.7769, "ARG_OF_PERICENTER": 209.1186, "MEAN_ANOMALY": 194.171, "EPHEMERIS_TYPE": 0, "CLASSIFICATION_TYPE": "U", "NORAD_CAT_ID": 41105, "ELEMENT_SET_NO": 999, "REV_AT_EPOCH": 3668, "BSTAR": 0, "MEAN_MOTION_DOT": -9.8e-07, "MEAN_MOTION_DDOT": 0}, "tle": {"line1": "1 41105U 15074A   25351.12374663 -.00000098  00000+0  00000+0 0  9992", "line2": "2 41105   6.2364  72.7769 0003668 209.1186 194.1710  1.00272669 36681"}}, "geometry": {"type": "Point", "coordinates": [5.89531905186875, -5.736350086794876]}}, {"type": "Feature", "properties": {"norad_id": 41752, "name": "INSAT-3DR", "group": "weather", "lat": 0.03870164299998724, "lon": 94.1880590065121, "alt_km": 35846.0481045016, "timestamp": "2025-12-17T19:34:07.687904+00:00", "meta": {"OBJECT_NAME": "INSAT-3DR", "OBJECT_ID": "2016-054A", "EPOCH": "2025-12-17T03:23:57.130080", "MEAN_MOTION": 1.00271579, "ECCENTRICITY": 0.00141601, "INCLINATION": 0.1029, "RA_OF_ASC_NODE": 86.6714, "ARG_OF_PERICENTER": 184.6225, "MEAN_ANOMALY": 299.7068, "EPHEMERIS_TYPE": 0, "CLASSIFICATION_TYPE": "U", "NORAD_CAT_ID": 41752, "ELEMENT_SET_NO": 999, "REV_AT_EPOCH": 3399, "BSTAR": 0, "MEAN_MOTION_DOT": -5.3e-07, "MEAN_MOTION_DDOT": 0}, "tle": {"line1": "1 41752U 16054A   25351.14163345 -.00000053  00000+0  00000+0 0  9995", "line2": "2 41752   0.1029  86.6714 0014160 184.6225 299.7068  1.00271579 33992"}}, "geometry": {"type": "Point", "coordinates": [94.1880590065121, 0.03870164299998724]}}]}